ONEWEB-0233             
1 48795U 21045AE  24146.19480498  .00000085  00000+0  19218-3 0  9991
2 48795  87.9057  49.0853 0001869  85.7634 274.3710 13.15549816146409
ONEWEB-0190             
1 48796U 21045AF  24146.19085549  .00000127  00000+0  30306-3 0  9998
2 48796  87.9059  49.0494 0002661  99.1138 261.0294 13.15548323146482
ONEWEB-0236             
1 48797U 21045AG  24146.13222545 -.00000150  00000+0 -43136-3 0  9995
2 48797  87.9064  49.0538 0002271  75.5710 284.5672 13.15549047146360
ONEWEB-0248             
1 48798U 21045AH  24145.76461360 -.00000025  00000+0 -10120-3 0  9992
2 48798  87.9052  49.1198 0002726  83.2028 276.9413 13.15548139145351
ONEWEB-0225             
1 48799U 21045AJ  24146.16710315 -.00002119  00000+0 -56670-2 0  9990
2 48799  87.9089  49.0481 0002834  83.8417 276.3036 13.15528078146552
ONEWEB-0215             
1 48800U 21045AK  24145.75668192 -.00000103  00000+0 -30866-3 0  9993
2 48800  87.9053  49.1075 0002744  90.7163 269.4281 13.15546894145236
ONEWEB-0216             
1 48801U 21045AL  24146.14646053  .00002917  00000+0  77107-2 0  9991
2 48801  87.9067  49.0731 0001806  85.6558 274.4778 13.15565665146414
ONEWEB-0239             
1 48802U 21045AM  24146.15122488  .00001971  00000+0  51982-2 0  9996
2 48802  87.9072  49.0424 0002650  83.9834 276.1598 13.15562938146471
